      2.10          N: GNSS NAV DATA                        RINEX VERSION / TYPE
fic2rin                                 09/29/2022 00:17:52 PGM / RUN BY / DATE
                                                            END OF HEADER
27 22  9 28 10  0  0.0  .206080731004D-03 -.511590769747D-11  .000000000000D+00
     .200000000000D+02 -.870625000000D+02  .459519140817D-08 -.236294798714D+01
    -.470504164696D-05  .106195452390D-01  .416114926338D-05  .515365793228D+04
     .295200000000D+06  .931322574615D-07 -.697314029883D+00 -.111758708954D-06
     .970746089231D+00  .304000000000D+03  .686941478418D+00 -.823891461244D-08
    -.193936649668D-09  .100000000000D+01  .222900000000D+04  .000000000000D+00
     .240000000000D+01  .000000000000D+00  .139698386192D-08  .200000000000D+02
     .288000000000D+06  .400000000000D+01
32 22  9 28 10  0  0.0 -.246741343290D-03 -.115960574476D-10  .000000000000D+00
     .680000000000D+02 -.497187500000D+02  .481841499204D-08 -.165063692864D+01
    -.257231295109D-05  .610237417277D-02  .670365989208D-05  .515364478493D+04
     .295200000000D+06  .145286321640D-06  .243784715599D+01 -.726431608200D-07
     .958723949878D+00  .252500000000D+03 -.229464343208D+01 -.814605360154D-08
    -.527164815673D-09  .100000000000D+01  .222900000000D+04  .000000000000D+00
     .240000000000D+01  .000000000000D+00  .465661287308D-09  .680000000000D+02
     .288000000000D+06  .400000000000D+01
21 22  9 28 10  0  0.0  .158839859068D-03 -.568434188608D-12  .000000000000D+00
     .550000000000D+02 -.582500000000D+02  .419303179946D-08 -.235396348746D+01
    -.260397791862D-05  .243437510217D-01  .130459666252D-04  .515370568466D+04
     .295200000000D+06 -.707805156708D-07  .269009519018D+00  .448897480965D-06
     .961170951005D+00  .122062500000D+03 -.889514217186D+00 -.751995609350D-08
     .575023952056D-10  .100000000000D+01  .222900000000D+04  .000000000000D+00
     .240000000000D+01  .000000000000D+00 -.102445483208D-07  .550000000000D+02
     .288000000000D+06  .400000000000D+01
26 22  9 28 10  0  0.0  .230374280363D-03  .159161572810D-11  .000000000000D+00
     .350000000000D+02  .103875000000D+03  .524343269573D-08 -.600346326331D+00
     .548362731934D-05  .718819396570D-02  .449642539024D-05  .515356581306D+04
     .295200000000D+06  .173225998878D-06 -.180294695625D+01  .242143869400D-07
     .935967419440D+00  .276781250000D+03  .375782150115D+00 -.876322216624D-08
     .413231498465D-09  .100000000000D+01  .222900000000D+04  .000000000000D+00
     .240000000000D+01  .000000000000D+00  .698491930962D-08  .350000000000D+02
     .288000000000D+06  .400000000000D+01
29 22  9 28 10  0  0.0 -.555287115276D-03 -.318323145621D-11  .000000000000D+00
     .810000000000D+02 -.913125000000D+02  .437768234804D-08 -.246555839394D+01
    -.456906855106D-05  .220468884800D-02  .544823706150D-05  .515364029503D+04
     .295200000000D+06 -.484287738800D-07 -.619786652625D+00  .372529029846D-08
     .979502726254D+00  .286718750000D+03  .246338673886D+01 -.811283793226D-08
    -.272868508926D-09  .100000000000D+01  .222900000000D+04  .000000000000D+00
     .240000000000D+01  .000000000000D+00 -.102445483208D-07  .810000000000D+02
     .288000000000D+06  .400000000000D+01
20 22  9 28 10  0  0.0  .482772011310D-03 -.306954461848D-11  .000000000000D+00
     .440000000000D+02  .464375000000D+02  .501699469225D-08  .276292282168D+01
     .236183404922D-05  .477974500973D-02  .764429569244D-05  .515365881729D+04
     .295200000000D+06 -.141561031342D-06  .123702452160D+01 -.298023223877D-07
     .944626323295D+00  .225343750000D+03 -.308542719526D+01 -.827570185906D-08
     .444304221340D-09  .100000000000D+01  .222900000000D+04  .000000000000D+00
     .240000000000D+01  .000000000000D+00 -.838190317154D-08  .440000000000D+02
     .288000000000D+06  .400000000000D+01
13 22  9 28 10  0  0.0  .395983457565D-03  .716227077646D-11  .000000000000D+00
     .340000000000D+02 -.602812500000D+02  .442518432669D-08 -.284671888483D+01
    -.302866101265D-05  .650673767086D-02  .760890543461D-05  .515367503548D+04
     .295200000000D+06  .316649675369D-07  .258212505384D+01 -.633299350739D-07
     .969236515768D+00  .236250000000D+03  .939204200299D+00 -.796390315710D-08
    -.521450291926D-09  .100000000000D+01  .222900000000D+04  .000000000000D+00
     .240000000000D+01  .000000000000D+00 -.111758708954D-07  .340000000000D+02
     .288000000000D+06  .400000000000D+01
12 22  9 28 10  0  0.0 -.285410787910D-03 -.602540239925D-11  .000000000000D+00
     .960000000000D+02  .837187500000D+02  .458054794106D-08  .329607974615D+00
     .414438545704D-05  .851118809078D-02  .406987965107D-05  .515373416901D+04
     .295200000000D+06 -.141561031342D-06 -.167222338794D+01  .484287738800D-07
     .967534457397D+00  .305781250000D+03  .131575125761D+01 -.846070956537D-08
     .313227332890D-09  .100000000000D+01  .222900000000D+04  .000000000000D+00
     .340000000000D+01  .000000000000D+00 -.125728547573D-07  .960000000000D+02
     .288000000000D+06  .400000000000D+01
16 22  9 28 10  0  0.0 -.525227747858D-03 -.795807864051D-12  .000000000000D+00
     .102000000000D+03  .890312500000D+02  .457411910185D-08 -.145233667577D+01
     .462308526039D-05  .128064021701D-01  .337511301041D-05  .515371530914D+04
     .295200000000D+06  .292435288429D-06 -.165375412472D+01 -.145286321640D-06
     .967355056827D+00  .310687500000D+03  .732618772330D+00 -.830177437365D-08
     .452876006961D-09  .100000000000D+01  .222900000000D+04  .000000000000D+00
     .340000000000D+01  .000000000000D+00 -.102445483208D-07  .102000000000D+03
     .288000000000D+06  .400000000000D+01
30 22  9 28 10  0  0.0 -.537172425538D-03 -.113686837722D-12  .000000000000D+00
     .112000000000D+03  .311250000000D+02  .467876631797D-08  .930026785612D+00
     .181049108505D-05  .594299379736D-02  .124033540487D-04  .515371331406D+04
     .295200000000D+06 -.169500708580D-06 -.277645850632D+01  .132247805595D-06
     .936218858485D+00  .128093750000D+03 -.265537971991D+01 -.806783605776D-08
    -.188222125921D-09  .100000000000D+01  .222900000000D+04  .000000000000D+00
     .340000000000D+01  .000000000000D+00  .372529029846D-08  .112000000000D+03
     .288000000000D+06  .400000000000D+01
15 22  9 28 10  0  0.0 -.253492034972D-04  .318323145621D-11  .000000000000D+00
     .560000000000D+02 -.521250000000D+02  .549451458287D-08  .293529897391D+01
    -.271201133728D-05  .146236510482D-01  .484660267830D-05  .515361786079D+04
     .295200000000D+06  .987201929092D-07  .231370028220D+01 -.201165676117D-06
     .930924701322D+00  .267375000000D+03  .113923339998D+01 -.843570852398D-08
    -.453590322429D-09  .100000000000D+01  .222900000000D+04  .000000000000D+00
     .240000000000D+01  .000000000000D+00 -.107102096081D-07  .560000000000D+02
     .288000000000D+06  .400000000000D+01
19 22  9 28 10  0  0.0  .216643325984D-03  .511590769747D-11  .000000000000D+00
     .640000000000D+02 -.883437500000D+02  .445232831449D-08 -.207609447218D+00
    -.466965138912D-05  .910607690457D-02  .497512519360D-05  .515372109795D+04
     .295200000000D+06 -.428408384323D-07 -.588606667682D+00 -.135973095894D-06
     .976309926564D+00  .292843750000D+03  .218413486224D+01 -.831713215622D-08
    -.255367779950D-09  .100000000000D+01  .222900000000D+04  .000000000000D+00
     .240000000000D+01  .000000000000D+00 -.153668224812D-07  .640000000000D+02
     .288000000000D+06  .400000000000D+01
22 22  9 28 10  0  0.0  .335894059390D-03  .693489710102D-11  .000000000000D+00
     .580000000000D+02 -.537187500000D+02  .458626246481D-08 -.257613420535D+01
    -.265054404736D-05  .134528931230D-01  .733137130737D-05  .515373813820D+04
     .295200000000D+06  .150874257088D-06  .252887537850D+01 -.167638063431D-07
     .961954438726D+00  .238062500000D+03 -.184466175661D+01 -.786961351528D-08
    -.504306720685D-09  .100000000000D+01  .222900000000D+04  .000000000000D+00
     .240000000000D+01  .000000000000D+00 -.791624188423D-08  .580000000000D+02
     .288000000000D+06  .400000000000D+01
25 22  9 28 10  0  0.0  .376770738512D-03  .397903932026D-11  .000000000000D+00
     .690000000000D+02  .926875000000D+02  .488841790794D-08  .153840374515D+00
     .477023422718D-05  .105719384737D-01  .429898500443D-05  .515361165810D+04
     .295200000000D+06 -.763684511185D-07 -.175173315378D+01  .229105353355D-06
     .955125576631D+00  .298343750000D+03  .100263203455D+01 -.859500087343D-08
     .367158150754D-09  .100000000000D+01  .222900000000D+04  .000000000000D+00
     .240000000000D+01  .000000000000D+00  .558793544769D-08  .690000000000D+02
     .288000000000D+06  .400000000000D+01
14 22  9 28 10  0  0.0 -.100059900433D-03  .318323145621D-11  .000000000000D+00
     .168000000000D+03  .875625000000D+02  .496520682079D-08  .271922940853D+00
     .461377203465D-05  .229932903312D-02  .453181564808D-05  .515365690422D+04
     .295200000000D+06  .931322574615D-08 -.170710997573D+01  .111758708954D-07
     .950930730722D+00  .286468750000D+03 -.303171658223D+01 -.851356891003D-08
     .406445501515D-09  .100000000000D+01  .222900000000D+04  .000000000000D+00
     .240000000000D+01  .000000000000D+00 -.791624188423D-08  .168000000000D+03
     .288000000000D+06  .400000000000D+01
17 22  9 28 10  0  0.0  .663547310978D-03  .363797880709D-11  .000000000000D+00
     .158000000000D+03 -.854375000000D+02  .436875340469D-08 -.235387377693D+01
    -.419653952122D-05  .137485046871D-01  .410340726376D-05  .515362453461D+04
     .295200000000D+06  .186264514923D-06 -.633304932927D+00  .126659870148D-06
     .977361195588D+00  .304281250000D+03 -.147873546114D+01 -.796497463031D-08
    -.214651798252D-09  .100000000000D+01  .222900000000D+04  .000000000000D+00
     .240000000000D+01  .000000000000D+00 -.111758708954D-07  .158000000000D+03
     .288000000000D+06  .400000000000D+01
